[Satellite]
VERSION=1.1
NAME=MOLNIYA 1-93
NICKNAME=MOLNIYA 1-93
TLE1=1 28163U 04005A   15054.99182336  .00000021  00000-0  19342-3 0  9990
TLE2=2 28163  64.0392  38.6377 7461195 244.1523  24.8218  2.00643457 80716
